#cP2012 11 22  0  0  0.00000000     288 u+U   IGb08 FIT  TUM
## 1715 345600.00000000   300.00000000 56253 0.0000000000000
+    3   J01E11E12  0  0  0  0  0  0  0  0  0  0  0  0  0  0
+          0  0  0  0  0  0  0  0  0  0  0  0  0  0  0  0  0
+          0  0  0  0  0  0  0  0  0  0  0  0  0  0  0  0  0
+          0  0  0  0  0  0  0  0  0  0  0  0  0  0  0  0  0
+          0  0  0  0  0  0  0  0  0  0  0  0  0  0  0  0  0
++         4  1  0  0  0  0  0  0  0  0  0  0  0  0  0  0  0
++         0  0  0  0  0  0  0  0  0  0  0  0  0  0  0  0  0
++         0  0  0  0  0  0  0  0  0  0  0  0  0  0  0  0  0
++         0  0  0  0  0  0  0  0  0  0  0  0  0  0  0  0  0
++         0  0  0  0  0  0  0  0  0  0  0  0  0  0  0  0  0
%c E  cc GPS ccc cccc cccc cccc cccc ccccc ccccc ccccc ccccc
%c cc cc ccc ccc cccc cccc cccc cccc ccccc ccccc ccccc ccccc
%f  1.2500000  1.025000000  0.00000000000  0.000000000000000
%f  0.0000000  0.000000000  0.00000000000  0.000000000000000
%i    0    0    0    0      0      0      0      0         0
%i    0    0    0    0      0      0      0      0         0
/* Galileo+QZSS orbits for MGEX based on CONGO+MGEX data    
/* Technische Universitaet Muenchen (TUM)                   
/* Further information: www.iapg.bv.tum.de/mgex             
/* PCV:IGS08_1645 OL/AL:FES2004  NONE     YN ORB:CoN CLK:CoN
*  2012 11 22 16 40  0.00000000
PJ01 -19386.313281  22689.699616 -25147.643143    351.469387
PE11  -6134.945335 -16029.383075  24111.686132    700.885652
PE12  13710.171433 -17464.782696  19573.482635    566.797576
*  2012 11 22 16 45  0.00000000
PJ01 -19587.164035  22409.399259 -25228.965218    351.469358
PE11  -5429.991423 -16204.722738  24163.470473    701.001709
PE12  14271.739281 -17612.975180  19031.698783    566.823100
*  2012 11 22 16 50  0.00000000
PJ01 -19797.689266  22135.290054 -25295.049779    351.469387
PE11  -4728.148830 -16396.177371  24181.822784    701.117713
PE12  14813.729625 -17769.377312  18463.587465    566.848598
*  2012 11 22 16 55  0.00000000
PJ01 -20017.575147  21867.815201 -25345.848195    351.469490
PE11  -4030.750516 -16603.408368  24166.717651    701.233810
PE12  15335.314761 -17932.972381  17869.934185    566.874121
*  2012 11 22 17  0  0.00000000
PJ01 -20246.489053  21607.404887 -25381.323098    351.469471
PE11  -3339.109015 -16826.004960  24118.175949    701.349842
PE12  15835.730826 -18102.702342  17251.559803    566.899639
*  2012 11 22 17  5  0.00000000
PJ01 -20484.080234  21354.475368 -25401.448437    351.469506
PE11  -2654.512138 -17063.485571  24036.264811    701.465829
PE12  16314.280208 -18277.471613  16609.319410    566.925119
*  2012 11 22 17 10  0.00000000
PJ01 -20729.980559  21109.428064 -25406.209516    351.469577
PE11  -1978.218717 -17315.299437  23921.097537    701.581875
PE12  16770.333750 -18456.151021  15944.101138    566.950647
*  2012 11 22 17 15  0.00000000
PJ01 -20983.805272  20872.648721 -25395.603019    351.469553
PE11  -1311.454512 -17580.828453  23772.833439    701.697880
PE12  17203.332687 -18637.581859  15256.824942    566.976133
*  2012 11 22 17 20  0.00000000
PJ01 -21245.153819  20644.506578 -25369.637009    351.469509
PE11   -655.408175 -17859.389276  23591.677617    701.813863
PE12  17612.790365 -18820.580061  14548.441327    567.001630
*  2012 11 22 17 25  0.00000000
PJ01 -21513.610691  20425.353593 -25328.330918    351.469584
PE11    -11.227382 -18150.235645  23377.880680    701.929862
PE12  17998.293703 -19003.940452  13819.930028    567.027131
*  2012 11 22 17 30  0.00000000
PJ01 -21788.746318  20215.523711 -25271.715521    351.469637
PE11    619.984903 -18452.560935  23131.738397    702.045927
PE12  18359.504391 -19186.441093  13072.298670    567.052653
*  2012 11 22 17 35  0.00000000
PJ01 -22070.117986  20015.332170 -25199.832882    351.469605
PE11   1237.174013 -18765.500925  22853.591288    702.161906
PE12  18696.159843 -19366.847680  12306.581359    567.078170
*  2012 11 22 17 40  0.00000000
PJ01 -22357.270796  19825.074859 -25112.736299    351.469666
PE11   1839.336981 -19088.136760  22543.824159    702.277930
PE12  19008.073880 -19543.917990  11523.837265    567.103660
*  2012 11 22 17 45  0.00000000
PJ01 -22649.738638  19645.027716 -25010.490215    351.469723
PE11   2425.525774 -19419.498129  22202.865560    702.393943
PE12  19295.137148 -19716.406360  10725.149146    567.129163
*  2012 11 22 17 50  0.00000000
PJ01 -22947.045202  19475.446192 -24893.170129    351.469725
PE11   2994.850326 -19758.566598  21831.187205    702.509946
PE12  19557.317276 -19883.068181   9911.621862    567.154661
*  2012 11 22 17 55  0.00000000
PJ01 -23248.705010  19316.564744 -24760.862479    351.469703
PE11   3546.481381 -20104.279148  21429.303311    702.625858
PE12  19794.658761 -20042.664396   9084.380832    567.180142
*  2012 11 22 18  0  0.00000000
PJ01 -23554.224457  19168.596406 -24613.664516    351.469744
PE11   4079.653098 -20455.531843  20997.769891    702.741872
PE12  20007.282589 -20193.965974   8244.570489    567.205653
*  2012 11 22 18  5  0.00000000
PJ01 -23863.102888  19031.732374 -24451.684162    351.469759
PE11   4593.665472 -20811.183657  20537.183989    702.857915
PE12  20195.385599 -20335.758357   7393.352691    567.231190
*  2012 11 22 18 10  0.00000000
PJ01 -24174.833666  18906.141709 -24275.039844    351.469760
PE11   5087.886485 -21170.060456  20048.182841    702.973879
PE12  20359.239566 -20466.845869   6531.905101    567.256689
*  2012 11 22 18 15  0.00000000
PJ01 -24488.905271  18791.971020 -24083.860331    351.469822
PE11   5561.754052 -21530.959052  19531.443014    703.089913
PE12  20499.190049 -20586.056042   5661.419577    567.282204
*  2012 11 22 18 20  0.00000000
PJ01 -24804.802394  18689.344257 -23878.284542    351.469851
PE11   6014.777701 -21892.651407  18987.679452    703.205924
PE12  20615.654960 -20692.243885   4783.100502    567.307737
*  2012 11 22 18 25  0.00000000
PJ01 -25122.007042  18598.362534 -23658.461349    351.469813
PE11   6446.540017 -22253.888906  18417.644501    703.321923
PE12  20709.122905 -20784.296047   3898.163128    567.333254
*  2012 11 22 18 30  0.00000000
PJ01 -25439.999643  18519.104019 -23424.549363    351.469869
PE11   6856.697824 -22613.406711  17822.126859    703.437930
PE12  20780.151263 -20861.134881   3007.831882    567.358731
*  2012 11 22 18 35  0.00000000
PJ01 -25758.260144  18451.623870 -23176.716712    351.469905
PE11   7244.983108 -22969.928176  17201.950493    703.553993
PE12  20829.364036 -20921.722381   2113.338679    567.384271
*  2012 11 22 18 40  0.00000000
PJ01 -26076.269117  18395.954234 -22915.140801    351.469826
PE11   7611.203682 -23322.169311  16557.973487    703.669992
PE12  20857.449470 -20965.063986   1215.921202    567.409749
*  2012 11 22 18 45  0.00000000
PJ01 -26393.508840  18352.104301 -22640.008074    351.469894
PE11   7955.243581 -23668.843267  15891.086870    703.786018
PE12  20865.157446 -20990.212238    316.821203    567.435280
*  2012 11 22 18 50  0.00000000
PJ01 -26709.464392  18320.060400 -22351.513749    351.469925
PE11   8277.063196 -24008.664841  15202.213372    703.902039
PE12  20853.296672 -20996.270273   -582.717235    567.460770
*  2012 11 22 18 55  0.00000000
PJ01 -27023.624709  18299.786167 -22049.861560    351.469915
PE11   8576.699142 -24340.354986  14492.306146    704.018072
PE12  20822.731660 -20982.395141  -1481.449416    567.486301
*  2012 11 22 19  0  0.00000000
PJ01 -27335.483640  18291.222754 -21735.263482    351.469927
PE11   8854.263851 -24662.645287  13762.347461    704.134070
PE12  20774.379516 -20947.800948  -2378.131750    567.511849
*  2012 11 22 19  5  0.00000000
PJ01 -27644.540987  18294.289085 -21407.939447    351.469998
PE11   9109.944919 -24974.282422  13013.347323    704.250026
PE12  20709.206551 -20891.761784  -3271.523490    567.537337
*  2012 11 22 19 10  0.00000000
PJ01 -27950.303508  18308.882178 -21068.117062    351.469983
PE11   9344.004169 -25274.032559  12246.342098    704.366003
PE12  20628.224721 -20813.614462  -4160.388440    567.562840
*  2012 11 22 19 15  0.00000000
PJ01 -28252.285915  18334.877505 -20716.031307    351.469973
PE11   9556.776474 -25560.685704  11462.393056    704.482057
PE12  20532.487905 -20712.761035  -5043.496680    567.588378
*  2012 11 22 19 20  0.00000000
PJ01 -28550.011835  18372.129395 -20351.924245    351.470083
PE11   9748.668313 -25833.059957  10662.584918    704.598088
PE12  20423.088056 -20588.671081  -5919.626258    567.613906
*  2012 11 22 19 25  0.00000000
PJ01 -28843.014752  18420.471493 -19976.044710    351.470094
PE11   9920.156092 -26090.005682   9848.024341    704.714090
PE12  20301.151206 -20440.883765  -6787.564901    567.639429
*  2012 11 22 19 30  0.00000000
PJ01 -29130.838901  18479.717263 -19588.648007    351.470082
PE11  10071.784198 -26330.409565   9019.838395    704.830117
PE12  20167.833355 -20269.009658  -7646.111676    567.664930
*  2012 11 22 19 35  0.00000000
PJ01 -29413.040159  18549.660523 -19189.995593    351.470150
PE11  10204.162846 -26553.198551   8179.172996    704.946111
PE12  20024.316277 -20072.732300  -8494.078670    567.690456
*  2012 11 22 19 40  0.00000000
PJ01 -29689.186873  18630.076030 -18780.354770    351.470168
PE11  10317.965670 -26757.343643   7327.191314    705.062119
PE12  19871.803214 -19851.809528  -9330.292630    567.715981
*  2012 11 22 19 45  0.00000000
PJ01 -29958.860675  18720.720099 -18359.998372    351.470130
PE11  10413.927113 -26941.863551   6465.072177    705.178214
PE12  19711.514525 -19606.074527 -10153.596584    567.741491
*  2012 11 22 19 50  0.00000000
PJ01 -30221.657243  18821.331260 -17929.204439    351.470171
PE11  10492.839595 -27105.828183   5594.008418    705.294277
PE12  19544.683250 -19335.436643 -10962.851457    567.767033
*  2012 11 22 19 55  0.00000000
PJ01 -30477.187038  18931.630946 -17488.255917    351.470236
PE11  10555.550485 -27248.361953   4715.205240    705.410195
PE12  19372.550661 -19039.881909 -11756.937630    567.792566
EOF
